# FY3D (LEO)
1 43010U 17072A   25256.31418833  .00000068  00000+0  53998-4 0  9997
2 43010  98.9725 221.3378 0002455 104.5038 255.6410 14.19641402405704

# FY3E (LEO)
1 49008U 21062A   25256.26311573  .00000005  00000+0  22901-4 0  9992
2 49008  98.7467 257.8461 0002171 134.5259 225.6095 14.19861572217280

# FY3F (LEO)
1 57490U 23111A   25256.25046872  .00000022  00000+0  30812-4 0  9998
2 57490  98.7195 325.9555 0001316 112.4812 247.6504 14.19858872109562

# FY3G (LEO)
1 56232U 23055A   25256.26579843  .00022576  00000+0  34458-3 0  9995
2 56232  49.9956 333.9648 0016381  92.9039 267.3804 15.54156934136967

# C2E1 (LEO)
1 44349U 19036L   25256.24228235  .00002750  00000+0  20465-3 0  9994
2 44349  23.9974 101.1675 0000977 349.8540  10.1941 14.97502198343100

# C2E2 (LEO)
1 44351U 19036N   25256.21968138  .00002757  00000+0  20529-3 0  9995
2 44351  23.9976 217.7225 0000787 332.2525  27.7934 14.97499094342035

# C2E3 (LEO)
1 44343U 19036E   25256.20537433  .00004016  00000+0  24295-3 0  9999
2 44343  23.9992 280.6462 0000825 192.1714 167.8769 15.06493836341379

# C2E4 (LEO)
1 44350U 19036M   25256.06354693  .00002708  00000+0  20125-3 0  9990
2 44350  23.9979 164.4525 0000976 326.0846  33.9592 14.97488271342499

# C2E5 (LEO)
1 44358U 19036V   25255.61098070  .00002937  00000+0  21817-3 0  9995
2 44358  24.0002 341.6101 0001310 156.9082 203.1478 14.97856499340707

# C2E6 (LEO)
1 44353U 19036Q   25256.08639860  .00002543  00000+0  18734-3 0  9997
2 44353  23.9982  39.4447 0001444   7.6893 352.3630 14.97491761340245

# G01 (GNSS)
1 62339U 24242A   25255.14281296 -.00000090  00000+0  00000+0 0  9997
2 62339  54.9505 345.4521 0007743 341.8868  20.1721  2.00565571  5689

# G02 (GNSS)
1 28474U 04045A   25255.56821853 -.00000085  00000+0  00000+0 0  9997
2 28474  55.2828 336.0744 0167560 305.9484  34.8128  2.00565180152856

# G03 (GNSS)
1 40294U 14068A   25255.71622577 -.00000044  00000+0  00000+0 0  9991
2 40294  56.7928  41.6641 0061851  69.6425 291.0273  2.00559116 79642

# G04 (GNSS)
1 43873U 18109A   25255.81295631  .00000007  00000+0  00000+0 0  9993
2 43873  55.5109 103.1367 0035112 194.5597 175.9921  2.00573791 49512

# G05 (GNSS)
1 35752U 09043A   25255.42463793 -.00000050  00000+0  00000+0 0  9999
2 35752  56.0303  38.3816 0054826  81.6210 288.5181  2.00570809117792

# G06 (GNSS)
1 39741U 14026A   25254.25637490 -.00000082  00000+0  00000+0 0  9990
2 39741  56.6169 342.3746 0035792 317.1776  42.5932  2.00567781 82940

# G07 (GNSS)
1 32711U 08012A   25255.93280455  .00000001  00000+0  00000+0 0  9999
2 32711  54.4663 160.9986 0200589 244.2026 113.7637  2.00561405128199

# G08 (GNSS)
1 40730U 15033A   25254.01706413  .00000010  00000+0  00000+0 0  9995
2 40730  54.2073 278.5861 0105602  25.3242 335.2348  2.00570267 74396

# G09 (GNSS)
1 40105U 14045A   25254.34718890  .00000016  00000+0  00000+0 0  9997
2 40105  55.1680  99.5846 0032664 116.9181 243.4955  2.00566794 80487

# G10 (GNSS)
1 41019U 15062A   25255.07210276 -.00000043  00000+0  00000+0 0  9999
2 41019  56.7679  41.5452 0106764 228.0002 131.0941  2.00566920 72251

# G11 (GNSS)
1 48859U 21054A   25256.05088437 -.00000093  00000+0  00000+0 0  9992
2 48859  55.2874 343.5966 0023241 228.0712 313.4834  2.00558002 31199

# G12 (GNSS)
1 29601U 06052A   25255.21087571  .00000054  00000+0  00000+0 0  9998
2 29601  54.9963 225.0269 0085051  86.9377 274.0150  2.00567957137833

# G13 (GNSS)
1 24876U 97035A   25255.49245239  .00000009  00000+0  00000+0 0  9995
2 24876  55.8467 109.4380 0095156  56.1847 304.8013  2.00562838206388

# G14 (GNSS)
1 46826U 20078A   25254.30316486  .00000049  00000+0  00000+0 0  9993
2 46826  54.0415 222.0900 0062648 203.5390 326.3978  2.00566895 35917

# G15 (GNSS)
1 32260U 07047A   25255.51531662  .00000002  00000+0  00000+0 0  9999
2 32260  53.8877  91.5256 0164403  83.5942 278.3418  2.00568164131246

# G16 (GNSS)
1 27663U 03005A   25255.91630454  .00000053  00000+0  00000+0 0  9999
2 27663  54.9492 225.9868 0143363  50.6586 320.2367  2.00575767165755

# G17 (GNSS)
1 28874U 05038A   25253.64155294  .00000003  00000+0  00000+0 0  9999
2 28874  55.1099 284.4482 0133721 291.2280  61.4823  2.00554296146225

# G18 (GNSS)
1 44506U 19056A   25252.50597588 -.00000076  00000+0  00000+0 0  9995
2 44506  55.7550 342.2954 0056504 195.5871 203.1478  2.00563354 44442

# G19 (GNSS)
1 28190U 04009A   25255.94249170  .00000000  00000+0  00000+0 0  9996
2 28190  55.0625 286.8776 0107514 165.3772  26.8947  2.00564189157383

# G20 (GNSS)
1 26360U 00025A   25256.10155832 -.00000065  00000+0  00000+0 0  9999
2 26360  54.9940  30.5021 0036901 234.4478 295.7309  2.00574594185715

# G21 (GNSS)
1 64202U 25116A   25256.12464725 -.00000047  00000+0  00000+0 0  9990
2 64202  55.0412  42.2989 0001984 300.5540 241.6961  2.00564241  2315

# G22 (GNSS)
1 26407U 00040A   25256.09833557  .00000052  00000+0  00000+0 0  9998
2 26407  54.9179 226.1692 0130811 299.9013  68.5125  2.00566753184397

# G23 (GNSS)
1 45854U 20041A   25253.02693436 -.00000043  00000+0  00000+0 0  9999
2 45854  56.4826  39.8338 0057294 199.8033 159.9633  2.00563968 38414

# G24 (GNSS)
1 38833U 12053A   25256.11083900 -.00000005  00000+0  00000+0 0  9992
2 38833  53.5435 154.9510 0171477  62.2677 299.5176  2.00564042 93884

# G25 (GNSS)
1 36585U 10022A   25255.49133184  .00000050  00000+0  00000+0 0  9997
2 36585  54.3226 219.7500 0122426  64.2441 115.5618  2.00574360112023

# G26 (GNSS)
1 40534U 15013A   25255.84910875  .00000043  00000+0  00000+0 0  9992
2 40534  53.2201 215.6505 0102186  36.1702 324.4955  2.00567834 76260

# G27 (GNSS)
1 39166U 13023A   25252.98316474  .00000010  00000+0  00000+0 0  9991
2 39166  54.7288 280.3777 0133280  48.1447 313.0385  2.00565455 90262

# G28 (GNSS)
1 55268U 23009A   25255.75588914  .00000003  00000+0  00000+0 0  9997
2 55268  55.0960 159.4194 0003743 346.1561  23.2907  2.00562749 19681

# G29 (GNSS)
1 32384U 07062A   25255.57741771  .00000003  00000+0  00000+0 0  9994
2 32384  55.2572 285.3015 0032613 163.2955  10.2638  2.00572766129948

# G30 (GNSS)
1 39533U 14008A   25253.97789602  .00000024  00000+0  00000+0 0  9995
2 39533  53.6194 160.7081 0078426 226.3038 133.0957  2.00568860 84080

# G31 (GNSS)
1 29486U 06042A   25255.79825051  .00000003  00000+0  00000+0 0  9998
2 29486  54.6858 162.3498 0106132  49.1341 323.0206  2.00557617138837

# G32 (GNSS)
1 41328U 16007A   25254.65519303  .00000014  00000+0  00000+0 0  9995
2 41328  55.3484 100.5115 0088526 242.5387 116.6354  2.00565452 70251

# C06 (GNSS)
1 36828U 10036A   25255.67754089 -.00000125  00000+0  00000+0 0  9999
2 36828  54.2780 165.4763 0048535 216.5889 318.4682  1.00251474 55311

# C04 (GNSS)
1 37210U 10057A   25256.26119096 -.00000120  00000+0  00000+0 0  9992
2 37210   2.9546  70.2191 0008331 170.0710   6.3098  1.00271079 54510

# C07 (GNSS)
1 37256U 10068A   25255.48996617 -.00000177  00000+0  00000+0 0  9991
2 37256  48.0485 275.2706 0048662 216.2640 143.5749  1.00260461 54013

# C14 (GNSS)
1 38775U 12050B   25255.76178328 -.00000005  00000+0  00000+0 0  9993
2 38775  56.2985  72.0838 0011201 357.7451   2.2860  1.86230881 88148

# C01 (GNSS)
1 44231U 19027A   25256.25807095 -.00000255  00000+0  00000+0 0  9990
2 44231   1.4278  74.3274 0006593 261.5860 254.0437  1.00271204 23306

# C24 (GNSS)
1 43582U 18062B   25252.14271861  .00000032  00000+0  00000+0 0  9998
2 43582  54.0958 191.8494 0005677  19.0925 340.9103  1.86229577 48405

# C26 (GNSS)
1 43602U 18067A   25253.69036066  .00000038  00000+0  00000+0 0  9999
2 43602  54.1893 190.5192 0008042  29.3415 330.6961  1.86227548 47914

# C25 (GNSS)
1 43603U 18067B   25255.43552494  .00000029  00000+0  00000+0 0  9992
2 43603  54.1862 190.4243 0004737  17.7856 342.2293  1.86227041 47975

# C32 (GNSS)
1 43622U 18072A   25255.93007659 -.00000005  00000+0  00000+0 0  9997
2 43622  56.3789  71.8250 0004063 321.7396  38.2673  1.86231108 47497

# C33 (GNSS)
1 43623U 18072B   25254.18469053 -.00000001  00000+0  00000+0 0  9990
2 43623  56.3792  71.8766 0003603  18.3051 341.7474  1.86231130 47452

# C35 (GNSS)
1 43647U 18078A   25253.80676976 -.00000045  00000+0  00000+0 0  9992
2 43647  54.3427 309.7706 0005787  22.9083 337.1895  1.86232160 46953

# C34 (GNSS)
1 43648U 18078B   25255.54679359 -.00000051  00000+0  00000+0 0  9991
2 43648  54.3370 309.7109 0002408  30.7471 329.3326  1.86232190 47005

# C59 (GNSS)
1 43683U 18085A   25256.25720428 -.00000285  00000+0  00000+0 0  9990
2 43683   2.8779 105.3603 0003706   9.5110 110.2682  1.00273673 25285

# C36 (GNSS)
1 43706U 18093A   25256.33153825  .00000019  00000+0  00000+0 0  9999
2 43706  54.1788 191.6895 0009003 293.9131 126.9744  1.86228089 46382

# C37 (GNSS)
1 43707U 18093B   25253.95440441  .00000039  00000+0  00000+0 0  9990
2 43707  54.1801 191.7620 0007594 324.6746  35.2669  1.86229741 46332

# C38 (GNSS)
1 44204U 19023A   25255.98711248 -.00000208  00000+0  00000+0 0  9997
2 44204  58.3082  40.5130 0025066 215.8899 210.1579  1.00270891  4430

# C39 (GNSS)
1 44337U 19035A   25247.72162405 -.00000168  00000+0  00000+0 0  9990
2 44337  55.2150 161.3741 0035069 208.7975 349.2962  1.00246132 22801

# C46 (GNSS)
1 44542U 19061A   25252.41488375  .00000034  00000+0  00000+0 0  9997
2 44542  54.4073 192.1979 0008716   1.9218 358.0642  1.86229277 40562

# C45 (GNSS)
1 44543U 19061B   25256.33962389  .00000019  00000+0  00000+0 0  9998
2 44543  54.4050 192.0340 0005700 348.6519  35.4617  1.86229321 40641

# C40 (GNSS)
1 44709U 19073A   25255.48054226 -.00000164  00000+0  00000+0 0  9994
2 44709  55.2773 283.8997 0045598 191.6628 168.2896  1.00271777 21673

# C44 (GNSS)
1 44793U 19078A   25254.94099163 -.00000050  00000+0  00000+0 0  9995
2 44793  54.1880 309.6074 0004456  29.3623 330.7301  1.86232017 39467

# C43 (GNSS)
1 44794U 19078B   25255.07654122 -.00000050  00000+0  00000+0 0  9993
2 44794  54.1603 309.5696 0002644  20.9091 339.1685  1.86227677 39478
